[{"OBJECT_NAME":"STARLINK-4623","OBJECT_ID":"2023-010AY","EPOCH":"2026-03-09T22:07:01.257312","MEAN_MOTION":14.983299,"ECCENTRICITY":0.00028457,"INCLINATION":70.0018,"RA_OF_ASC_NODE":23.8829,"ARG_OF_PERICENTER":266.8009,"MEAN_ANOMALY":93.2825,"EPHEMERIS_TYPE":0,"CLASSIFICATION_TYPE":"U","NORAD_CAT_ID":55315,"ELEMENT_SET_NO":999,"REV_AT_EPOCH":17329,"BSTAR":6.502102e-6,"MEAN_MOTION_DOT":-1.5e-7,"MEAN_MOTION_DDOT":0},{"OBJECT_NAME":"FENGYUN 1C DEB","OBJECT_ID":"1999-025BKG","EPOCH":"2026-03-07T13:45:43.096608","MEAN_MOTION":14.85582818,"ECCENTRICITY":0.0064954,"INCLINATION":96.5618,"RA_OF_ASC_NODE":101.964,"ARG_OF_PERICENTER":251.088,"MEAN_ANOMALY":261.3714,"EPHEMERIS_TYPE":0,"CLASSIFICATION_TYPE":"U","NORAD_CAT_ID":31202,"ELEMENT_SET_NO":999,"REV_AT_EPOCH":335,"BSTAR":0.0013766,"MEAN_MOTION_DOT":0.00012341,"MEAN_MOTION_DDOT":0}]
